[{"OBJECT_NAME":"STARLINK-4144","OBJECT_ID":"2022-086R","EPOCH":"2026-03-09T14:44:04.925760","MEAN_MOTION":15.0884349,"ECCENTRICITY":0.0001162,"INCLINATION":53.2167,"RA_OF_ASC_NODE":194.4603,"ARG_OF_PERICENTER":98.4624,"MEAN_ANOMALY":261.65,"EPHEMERIS_TYPE":0,"CLASSIFICATION_TYPE":"U","NORAD_CAT_ID":53257,"ELEMENT_SET_NO":999,"REV_AT_EPOCH":20105,"BSTAR":-1.3508e-5,"MEAN_MOTION_DOT":-5.03e-6,"MEAN_MOTION_DDOT":0},{"OBJECT_NAME":"LEMUR-2-SIERRINI","OBJECT_ID":"2024-149DR","EPOCH":"2026-03-09T19:24:50.445216","MEAN_MOTION":15.08682764,"ECCENTRICITY":0.00065795,"INCLINATION":97.6873,"RA_OF_ASC_NODE":151.1225,"ARG_OF_PERICENTER":147.8458,"MEAN_ANOMALY":212.3173,"EPHEMERIS_TYPE":0,"CLASSIFICATION_TYPE":"U","NORAD_CAT_ID":60579,"ELEMENT_SET_NO":999,"REV_AT_EPOCH":8546,"BSTAR":0.00092040134,"MEAN_MOTION_DOT":0.00014386,"MEAN_MOTION_DDOT":0}]
